{
  "links" : {
    "next" : "https://api.nasa.gov/neo/rest/v1/feed?start_date=2016-08-09&end_date=2016-08-09&detailed=true&api_key=t0TVs3DtDT2H8Oy2Zy8m2eVrNsAVKAexjcZXUckd",
    "prev" : "https://api.nasa.gov/neo/rest/v1/feed?start_date=2016-08-07&end_date=2016-08-07&detailed=true&api_key=t0TVs3DtDT2H8Oy2Zy8m2eVrNsAVKAexjcZXUckd",
    "self" : "https://api.nasa.gov/neo/rest/v1/feed?start_date=2016-08-08&end_date=2016-08-08&detailed=true&api_key=t0TVs3DtDT2H8Oy2Zy8m2eVrNsAVKAexjcZXUckd"
  },
  "element_count" : 5,
  "near_earth_objects" : {
    "2016-08-08" : [ {
      "links" : {
        "self" : "https://api.nasa.gov/neo/rest/v1/neo/3678632?api_key=t0TVs3DtDT2H8Oy2Zy8m2eVrNsAVKAexjcZXUckd"
      },
      "neo_reference_id" : "3678632",
      "name" : "(2014 ON344)",
      "nasa_jpl_url" : "http://ssd.jpl.nasa.gov/sbdb.cgi?sstr=3678632",
      "absolute_magnitude_h" : 22.5,
      "estimated_diameter" : {
        "kilometers" : {
          "estimated_diameter_min" : 0.0840533402,
          "estimated_diameter_max" : 0.1879489824
        },
        "meters" : {
          "estimated_diameter_min" : 84.0533402073,
          "estimated_diameter_max" : 187.9489824394
        },
        "miles" : {
          "estimated_diameter_min" : 0.0522283081,
          "estimated_diameter_max" : 0.1167860472
        },
        "feet" : {
          "estimated_diameter_min" : 275.7655606856,
          "estimated_diameter_max" : 616.6305395464
        }
      },
      "is_potentially_hazardous_asteroid" : false,
      "close_approach_data" : [ {
        "close_approach_date" : "2016-08-08",
        "epoch_date_close_approach" : 1470639600000,
        "relative_velocity" : {
          "kilometers_per_second" : "13.776679832",
          "kilometers_per_hour" : "49596.0473952792",
          "miles_per_hour" : "30817.05511625"
        },
        "miss_distance" : {
          "astronomical" : "0.254126662",
          "lunar" : "98.8552703857",
          "kilometers" : "38016808",
          "miles" : "23622550"
        },
        "orbiting_body" : "Earth"
      } ],
      "orbital_data" : {
        "orbit_id" : "12",
        "orbit_determination_date" : "2017-07-27 06:20:48",
        "orbit_uncertainty" : "1",
        "minimum_orbit_intersection" : ".228534",
        "jupiter_tisserand_invariant" : "5.930",
        "epoch_osculation" : "2458000.5",
        "eccentricity" : ".3416951807499055",
        "semi_major_axis" : "1.00338946586105",
        "inclination" : "25.69349998154426",
        "ascending_node_longitude" : "127.09492982",
        "orbital_period" : "367.1155097119046",
        "perihelion_distance" : ".6605361209611074",
        "perihelion_argument" : "335.921724020064",
        "aphelion_distance" : "1.346242810760992",
        "perihelion_time" : "2458102.303977193079",
        "mean_anomaly" : "260.1692088185837",
        "mean_motion" : ".9806177905218754",
        "equinox" : "J2000"
      }
    }, {
      "links" : {
        "self" : "https://api.nasa.gov/neo/rest/v1/neo/3743745?api_key=t0TVs3DtDT2H8Oy2Zy8m2eVrNsAVKAexjcZXUckd"
      },
      "neo_reference_id" : "3743745",
      "name" : "(2016 CP195)",
      "nasa_jpl_url" : "http://ssd.jpl.nasa.gov/sbdb.cgi?sstr=3743745",
      "absolute_magnitude_h" : 26.5,
      "estimated_diameter" : {
        "kilometers" : {
          "estimated_diameter_min" : 0.0133215567,
          "estimated_diameter_max" : 0.0297879063
        },
        "meters" : {
          "estimated_diameter_min" : 13.3215566698,
          "estimated_diameter_max" : 29.7879062798
        },
        "miles" : {
          "estimated_diameter_min" : 0.008277629,
          "estimated_diameter_max" : 0.0185093411
        },
        "feet" : {
          "estimated_diameter_min" : 43.7058959846,
          "estimated_diameter_max" : 97.7293544391
        }
      },
      "is_potentially_hazardous_asteroid" : false,
      "close_approach_data" : [ {
        "close_approach_date" : "2016-08-08",
        "epoch_date_close_approach" : 1470639600000,
        "relative_velocity" : {
          "kilometers_per_second" : "12.6286130652",
          "kilometers_per_hour" : "45463.0070347556",
          "miles_per_hour" : "28248.944565568"
        },
        "miss_distance" : {
          "astronomical" : "0.2431289401",
          "lunar" : "94.5771560669",
          "kilometers" : "36371572",
          "miles" : "22600248"
        },
        "orbiting_body" : "Earth"
      } ],
      "orbital_data" : {
        "orbit_id" : "7",
        "orbit_determination_date" : "2017-04-06 08:28:18",
        "orbit_uncertainty" : "8",
        "minimum_orbit_intersection" : ".0291967",
        "jupiter_tisserand_invariant" : "5.280",
        "epoch_osculation" : "2457431.5",
        "eccentricity" : ".196207036823308",
        "semi_major_axis" : "1.173759690011402",
        "inclination" : "24.56944261714928",
        "ascending_node_longitude" : "324.0081484463246",
        "orbital_period" : "464.4802078199394",
        "perihelion_distance" : ".9434597792916199",
        "perihelion_argument" : "236.5915183959284",
        "aphelion_distance" : "1.404059600731183",
        "perihelion_time" : "2457483.583078467937",
        "mean_anomaly" : "319.6324925523502",
        "mean_motion" : ".7750599356852634",
        "equinox" : "J2000"
      }
    }, {
      "links" : {
        "self" : "https://api.nasa.gov/neo/rest/v1/neo/3744785?api_key=t0TVs3DtDT2H8Oy2Zy8m2eVrNsAVKAexjcZXUckd"
      },
      "neo_reference_id" : "3744785",
      "name" : "(2016 CL264)",
      "nasa_jpl_url" : "http://ssd.jpl.nasa.gov/sbdb.cgi?sstr=3744785",
      "absolute_magnitude_h" : 19.3,
      "estimated_diameter" : {
        "kilometers" : {
          "estimated_diameter_min" : 0.3669061375,
          "estimated_diameter_max" : 0.8204270649
        },
        "meters" : {
          "estimated_diameter_min" : 366.9061375314,
          "estimated_diameter_max" : 820.4270648822
        },
        "miles" : {
          "estimated_diameter_min" : 0.2279848336,
          "estimated_diameter_max" : 0.5097895857
        },
        "feet" : {
          "estimated_diameter_min" : 1203.7603322587,
          "estimated_diameter_max" : 2691.6899315481
        }
      },
      "is_potentially_hazardous_asteroid" : true,
      "close_approach_data" : [ {
        "close_approach_date" : "2016-08-08",
        "epoch_date_close_approach" : 1470639600000,
        "relative_velocity" : {
          "kilometers_per_second" : "23.0659593455",
          "kilometers_per_hour" : "83037.453643818",
          "miles_per_hour" : "51596.2444599601"
        },
        "miss_distance" : {
          "astronomical" : "0.0583087331",
          "lunar" : "22.6820964813",
          "kilometers" : "8722862",
          "miles" : "5420135.5"
        },
        "orbiting_body" : "Earth"
      } ],
      "orbital_data" : {
        "orbit_id" : "30",
        "orbit_determination_date" : "2017-04-06 08:28:09",
        "orbit_uncertainty" : "1",
        "minimum_orbit_intersection" : ".0093516",
        "jupiter_tisserand_invariant" : "3.921",
        "epoch_osculation" : "2458000.5",
        "eccentricity" : ".5747896241187695",
        "semi_major_axis" : "1.647586316778992",
        "inclination" : "34.11630632398105",
        "ascending_node_longitude" : "138.5655357867285",
        "orbital_period" : "772.4505586274097",
        "perihelion_distance" : ".7005707970543673",
        "perihelion_argument" : "100.2702361343184",
        "aphelion_distance" : "2.594601836503617",
        "perihelion_time" : "2458331.447577434085",
        "mean_anomaly" : "205.7621312515122",
        "mean_motion" : ".466049245455521",
        "equinox" : "J2000"
      }
    } ]
  }
}